GPS_BIIF-4 -PRN-27
1 39166U 13023A   23123.93045073 -.00000037  00000+0  00000+0 0  9995
2 39166  55.4591 315.0570 0114181  40.9854 319.8842  2.00564765 73014
